<?xml version="1.0" encoding="UTF-8"?>
<ndm xmlns:xsi="http://www.w3.org/2001/XMLSchema-instance" xsi:noNamespaceSchemaLocation="https://sanaregistry.org/r/ndmxml_unqualified/ndmxml-2.0.0-master-2.0.xsd">
<omm id="CCSDS_OMM_VERS" version="2.0">
<header><CREATION_DATE/><ORIGINATOR/></header><body><segment><metadata><OBJECT_NAME>KUIPER-00061</OBJECT_NAME><OBJECT_ID>2025-134X</OBJECT_ID><CENTER_NAME>EARTH</CENTER_NAME><REF_FRAME>TEME</REF_FRAME><TIME_SYSTEM>UTC</TIME_SYSTEM><MEAN_ELEMENT_THEORY>SGP4</MEAN_ELEMENT_THEORY></metadata><data><meanElements><EPOCH>2025-08-01T04:21:07.795008</EPOCH><MEAN_MOTION>15.35721918</MEAN_MOTION><ECCENTRICITY>.0004798</ECCENTRICITY><INCLINATION>51.8736</INCLINATION><RA_OF_ASC_NODE>144.2825</RA_OF_ASC_NODE><ARG_OF_PERICENTER>246.7182</ARG_OF_PERICENTER><MEAN_ANOMALY>113.3299</MEAN_ANOMALY></meanElements><tleParameters><EPHEMERIS_TYPE>0</EPHEMERIS_TYPE><CLASSIFICATION_TYPE>U</CLASSIFICATION_TYPE><NORAD_CAT_ID>64521</NORAD_CAT_ID><ELEMENT_SET_NO>999</ELEMENT_SET_NO><REV_AT_EPOCH>673</REV_AT_EPOCH><BSTAR>.7694E-3</BSTAR><MEAN_MOTION_DOT>.26862E-3</MEAN_MOTION_DOT><MEAN_MOTION_DDOT>0</MEAN_MOTION_DDOT></tleParameters></data></segment></body></omm>
<omm id="CCSDS_OMM_VERS" version="2.0">
<header><CREATION_DATE/><ORIGINATOR/></header><body><segment><metadata><OBJECT_NAME>KUIPER-00062</OBJECT_NAME><OBJECT_ID>2025-134Y</OBJECT_ID><CENTER_NAME>EARTH</CENTER_NAME><REF_FRAME>TEME</REF_FRAME><TIME_SYSTEM>UTC</TIME_SYSTEM><MEAN_ELEMENT_THEORY>SGP4</MEAN_ELEMENT_THEORY></metadata><data><meanElements><EPOCH>2025-08-01T10:00:00.999936</EPOCH><MEAN_MOTION>15.30657519</MEAN_MOTION><ECCENTRICITY>.0005087</ECCENTRICITY><INCLINATION>51.8756</INCLINATION><RA_OF_ASC_NODE>143.2109</RA_OF_ASC_NODE><ARG_OF_PERICENTER>246.1446</ARG_OF_PERICENTER><MEAN_ANOMALY>317.3932</MEAN_ANOMALY></meanElements><tleParameters><EPHEMERIS_TYPE>0</EPHEMERIS_TYPE><CLASSIFICATION_TYPE>U</CLASSIFICATION_TYPE><NORAD_CAT_ID>64522</NORAD_CAT_ID><ELEMENT_SET_NO>999</ELEMENT_SET_NO><REV_AT_EPOCH>676</REV_AT_EPOCH><BSTAR>-.1397E-3</BSTAR><MEAN_MOTION_DOT>-.4564E-4</MEAN_MOTION_DOT><MEAN_MOTION_DDOT>0</MEAN_MOTION_DDOT></tleParameters></data></segment></body></omm>
<omm id="CCSDS_OMM_VERS" version="2.0">
<header><CREATION_DATE/><ORIGINATOR/></header><body><segment><metadata><OBJECT_NAME>KUIPER-00063</OBJECT_NAME><OBJECT_ID>2025-134Z</OBJECT_ID><CENTER_NAME>EARTH</CENTER_NAME><REF_FRAME>TEME</REF_FRAME><TIME_SYSTEM>UTC</TIME_SYSTEM><MEAN_ELEMENT_THEORY>SGP4</MEAN_ELEMENT_THEORY></metadata><data><meanElements><EPOCH>2025-08-01T05:25:36.812928</EPOCH><MEAN_MOTION>15.35860586</MEAN_MOTION><ECCENTRICITY>.0003266</ECCENTRICITY><INCLINATION>51.8746</INCLINATION><RA_OF_ASC_NODE>143.8395</RA_OF_ASC_NODE><ARG_OF_PERICENTER>231.3970</ARG_OF_PERICENTER><MEAN_ANOMALY>128.6723</MEAN_ANOMALY></meanElements><tleParameters><EPHEMERIS_TYPE>0</EPHEMERIS_TYPE><CLASSIFICATION_TYPE>U</CLASSIFICATION_TYPE><NORAD_CAT_ID>64523</NORAD_CAT_ID><ELEMENT_SET_NO>999</ELEMENT_SET_NO><REV_AT_EPOCH>674</REV_AT_EPOCH><BSTAR>.11155E-2</BSTAR><MEAN_MOTION_DOT>.39353E-3</MEAN_MOTION_DOT><MEAN_MOTION_DDOT>0</MEAN_MOTION_DDOT></tleParameters></data></segment></body></omm>
<omm id="CCSDS_OMM_VERS" version="2.0">
<header><CREATION_DATE/><ORIGINATOR/></header><body><segment><metadata><OBJECT_NAME>KUIPER-00064</OBJECT_NAME><OBJECT_ID>2025-134AA</OBJECT_ID><CENTER_NAME>EARTH</CENTER_NAME><REF_FRAME>TEME</REF_FRAME><TIME_SYSTEM>UTC</TIME_SYSTEM><MEAN_ELEMENT_THEORY>SGP4</MEAN_ELEMENT_THEORY></metadata><data><meanElements><EPOCH>2025-08-01T08:10:07.855680</EPOCH><MEAN_MOTION>15.37236190</MEAN_MOTION><ECCENTRICITY>.0001575</ECCENTRICITY><INCLINATION>51.8763</INCLINATION><RA_OF_ASC_NODE>143.1078</RA_OF_ASC_NODE><ARG_OF_PERICENTER>150.5698</ARG_OF_PERICENTER><MEAN_ANOMALY>209.5378</MEAN_ANOMALY></meanElements><tleParameters><EPHEMERIS_TYPE>0</EPHEMERIS_TYPE><CLASSIFICATION_TYPE>U</CLASSIFICATION_TYPE><NORAD_CAT_ID>64524</NORAD_CAT_ID><ELEMENT_SET_NO>999</ELEMENT_SET_NO><REV_AT_EPOCH>706</REV_AT_EPOCH><BSTAR>.11607E-2</BSTAR><MEAN_MOTION_DOT>.42847E-3</MEAN_MOTION_DOT><MEAN_MOTION_DDOT>0</MEAN_MOTION_DDOT></tleParameters></data></segment></body></omm>
<omm id="CCSDS_OMM_VERS" version="2.0">
<header><CREATION_DATE/><ORIGINATOR/></header><body><segment><metadata><OBJECT_NAME>KUIPER-00065</OBJECT_NAME><OBJECT_ID>2025-134AB</OBJECT_ID><CENTER_NAME>EARTH</CENTER_NAME><REF_FRAME>TEME</REF_FRAME><TIME_SYSTEM>UTC</TIME_SYSTEM><MEAN_ELEMENT_THEORY>SGP4</MEAN_ELEMENT_THEORY></metadata><data><meanElements><EPOCH>2025-08-01T10:00:00.999936</EPOCH><MEAN_MOTION>15.28822171</MEAN_MOTION><ECCENTRICITY>.000749</ECCENTRICITY><INCLINATION>51.8731</INCLINATION><RA_OF_ASC_NODE>143.4706</RA_OF_ASC_NODE><ARG_OF_PERICENTER>249.0347</ARG_OF_PERICENTER><MEAN_ANOMALY>154.3647</MEAN_ANOMALY></meanElements><tleParameters><EPHEMERIS_TYPE>0</EPHEMERIS_TYPE><CLASSIFICATION_TYPE>U</CLASSIFICATION_TYPE><NORAD_CAT_ID>64525</NORAD_CAT_ID><ELEMENT_SET_NO>999</ELEMENT_SET_NO><REV_AT_EPOCH>700</REV_AT_EPOCH><BSTAR>-.29462E-3</BSTAR><MEAN_MOTION_DOT>-.8727E-4</MEAN_MOTION_DOT><MEAN_MOTION_DDOT>0</MEAN_MOTION_DDOT></tleParameters></data></segment></body></omm>
<omm id="CCSDS_OMM_VERS" version="2.0">
<header><CREATION_DATE/><ORIGINATOR/></header><body><segment><metadata><OBJECT_NAME>KUIPER-00066</OBJECT_NAME><OBJECT_ID>2025-134AC</OBJECT_ID><CENTER_NAME>EARTH</CENTER_NAME><REF_FRAME>TEME</REF_FRAME><TIME_SYSTEM>UTC</TIME_SYSTEM><MEAN_ELEMENT_THEORY>SGP4</MEAN_ELEMENT_THEORY></metadata><data><meanElements><EPOCH>2025-08-01T00:31:14.398752</EPOCH><MEAN_MOTION>15.36936357</MEAN_MOTION><ECCENTRICITY>.000123</ECCENTRICITY><INCLINATION>51.8746</INCLINATION><RA_OF_ASC_NODE>144.7223</RA_OF_ASC_NODE><ARG_OF_PERICENTER>197.7286</ARG_OF_PERICENTER><MEAN_ANOMALY>162.3658</MEAN_ANOMALY></meanElements><tleParameters><EPHEMERIS_TYPE>0</EPHEMERIS_TYPE><CLASSIFICATION_TYPE>U</CLASSIFICATION_TYPE><NORAD_CAT_ID>64526</NORAD_CAT_ID><ELEMENT_SET_NO>999</ELEMENT_SET_NO><REV_AT_EPOCH>671</REV_AT_EPOCH><BSTAR>.9138E-3</BSTAR><MEAN_MOTION_DOT>.3328E-3</MEAN_MOTION_DOT><MEAN_MOTION_DDOT>0</MEAN_MOTION_DDOT></tleParameters></data></segment></body></omm>
<omm id="CCSDS_OMM_VERS" version="2.0">
<header><CREATION_DATE/><ORIGINATOR/></header><body><segment><metadata><OBJECT_NAME>KUIPER-00069</OBJECT_NAME><OBJECT_ID>2025-151A</OBJECT_ID><CENTER_NAME>EARTH</CENTER_NAME><REF_FRAME>TEME</REF_FRAME><TIME_SYSTEM>UTC</TIME_SYSTEM><MEAN_ELEMENT_THEORY>SGP4</MEAN_ELEMENT_THEORY></metadata><data><meanElements><EPOCH>2025-08-01T12:52:00.743808</EPOCH><MEAN_MOTION>15.35725929</MEAN_MOTION><ECCENTRICITY>.0005587</ECCENTRICITY><INCLINATION>51.8776</INCLINATION><RA_OF_ASC_NODE>209.1529</RA_OF_ASC_NODE><ARG_OF_PERICENTER>193.4011</ARG_OF_PERICENTER><MEAN_ANOMALY>166.6827</MEAN_ANOMALY></meanElements><tleParameters><EPHEMERIS_TYPE>0</EPHEMERIS_TYPE><CLASSIFICATION_TYPE>U</CLASSIFICATION_TYPE><NORAD_CAT_ID>64816</NORAD_CAT_ID><ELEMENT_SET_NO>999</ELEMENT_SET_NO><REV_AT_EPOCH>367</REV_AT_EPOCH><BSTAR>.69087E-3</BSTAR><MEAN_MOTION_DOT>.24078E-3</MEAN_MOTION_DOT><MEAN_MOTION_DDOT>0</MEAN_MOTION_DDOT></tleParameters></data></segment></body></omm>
<omm id="CCSDS_OMM_VERS" version="2.0">
<header><CREATION_DATE/><ORIGINATOR/></header><body><segment><metadata><OBJECT_NAME>KUIPER-00070</OBJECT_NAME><OBJECT_ID>2025-151B</OBJECT_ID><CENTER_NAME>EARTH</CENTER_NAME><REF_FRAME>TEME</REF_FRAME><TIME_SYSTEM>UTC</TIME_SYSTEM><MEAN_ELEMENT_THEORY>SGP4</MEAN_ELEMENT_THEORY></metadata><data><meanElements><EPOCH>2025-08-01T10:00:00.999936</EPOCH><MEAN_MOTION>15.31476428</MEAN_MOTION><ECCENTRICITY>.0005364</ECCENTRICITY><INCLINATION>51.8784</INCLINATION><RA_OF_ASC_NODE>209.8886</RA_OF_ASC_NODE><ARG_OF_PERICENTER>225.2846</ARG_OF_PERICENTER><MEAN_ANOMALY>123.4935</MEAN_ANOMALY></meanElements><tleParameters><EPHEMERIS_TYPE>0</EPHEMERIS_TYPE><CLASSIFICATION_TYPE>U</CLASSIFICATION_TYPE><NORAD_CAT_ID>64817</NORAD_CAT_ID><ELEMENT_SET_NO>999</ELEMENT_SET_NO><REV_AT_EPOCH>364</REV_AT_EPOCH><BSTAR>-.25754E-1</BSTAR><MEAN_MOTION_DOT>-.732609E-2</MEAN_MOTION_DOT><MEAN_MOTION_DDOT>0</MEAN_MOTION_DDOT></tleParameters></data></segment></body></omm>

</ndm>
