KUIPER-00061            
1 64521U 25134X   25213.18134022  .00026862  00000+0  76940-3 0  9999
2 64521  51.8736 144.2825 0004798 246.7182 113.3299 15.35721918  6730
KUIPER-00062            
1 64522U 25134Y   25213.41667824 -.00004564  00000+0 -13970-3 0  9998
2 64522  51.8756 143.2109 0005087 246.1446 317.3932 15.30657519  6769
KUIPER-00063            
1 64523U 25134Z   25213.22612052  .00039353  00000+0  11155-2 0  9995
2 64523  51.8746 143.8395 0003266 231.3970 128.6723 15.35860586  6741
KUIPER-00064            
1 64524U 25134AA  25213.34036870  .00042847  00000+0  11607-2 0  9991
2 64524  51.8763 143.1078 0001575 150.5698 209.5378 15.37236190  7063
KUIPER-00065            
1 64525U 25134AB  25213.41667824 -.00008727  00000+0 -29462-3 0  9999
2 64525  51.8731 143.4706 0007490 249.0347 154.3647 15.28822171  7007
KUIPER-00066            
1 64526U 25134AC  25213.02169443  .00033280  00000+0  91380-3 0  9999
2 64526  51.8746 144.7223 0001230 197.7286 162.3658 15.36936357  6718
KUIPER-00069            
1 64816U 25151A   25213.53611972  .00024078  00000+0  69087-3 0  9999
2 64816  51.8776 209.1529 0005587 193.4011 166.6827 15.35725929  3673
KUIPER-00070            
1 64817U 25151B   25213.41667824 -.00732609  00000+0 -25754-1 0  9993
2 64817  51.8784 209.8886 0005364 225.2846 123.4935 15.31476428  3640
